{"type": "FeatureCollection", "features": [ {"type": "Feature", "properties": {"norad_id": 29843, "name": "FENGYUN 1C DEB", "group": "fengyun-1c-debris", "lat": 28.718017333690195, "lon": 172.2652445333564, "alt_km": 760.7510828217391, "timestamp": "2025-12-05T04:52:15.564512+00:00", "meta": {"OBJECT_NAME": "FENGYUN 1C DEB", "OBJECT_ID": "1999-025EM", "EPOCH": "2025-12-04T12:04:01.780032", "MEAN_MOTION": 14.28548427, "ECCENTRICITY": 0.0192017, "INCLINATION": 99.0378, "RA_OF_ASC_NODE": 176.5427, "ARG_OF_PERICENTER": 314.6463, "MEAN_ANOMALY": 73.6952, "EPHEMERIS_TYPE": 0, "CLASSIFICATION_TYPE": "U", "NORAD_CAT_ID": 29843, "ELEMENT_SET_NO": 999, "REV_AT_EPOCH": 98164, "BSTAR": 0.0003347, "MEAN_MOTION_DOT": 9.69e-06, "MEAN_MOTION_DDOT": 0}, "tle": {"line1": "1 29843U 99025EM  25338.50279838  .00000969  00000+0  33470-3 0  9997", "line2": "2 29843  99.0378 176.5427 0192017 314.6463  73.6952 14.28548427981648"}}, "geometry": {"type": "Point", "coordinates": [172.2652445333564, 28.718017333690195]}}, {"type": "Feature", "properties": {"norad_id": 29844, "name": "FENGYUN 1C DEB", "group": "fengyun-1c-debris", "lat": -21.45196300415824, "lon": -116.13865869776157, "alt_km": 893.1832345757484, "timestamp": "2025-12-05T04:52:15.564521+00:00", "meta": {"OBJECT_NAME": "FENGYUN 1C DEB", "OBJECT_ID": "1999-025EN", "EPOCH": "2025-12-04T15:33:33.602112", "MEAN_MOTION": 14.31952483, "ECCENTRICITY": 0.0167711, "INCLINATION": 98.9366, "RA_OF_ASC_NODE": 239.7452, "ARG_OF_PERICENTER": 190.752, "MEAN_ANOMALY": 169.006, "EPHEMERIS_TYPE": 0, "CLASSIFICATION_TYPE": "U", "NORAD_CAT_ID": 29844, "ELEMENT_SET_NO": 999, "REV_AT_EPOCH": 98225, "BSTAR": 0.00078721, "MEAN_MOTION_DOT": 2.414e-05, "MEAN_MOTION_DDOT": 0}, "tle": {"line1": "1 29844U 99025EN  25338.64830558  .00002414  00000+0  78721-3 0  9990", "line2": "2 29844  98.9366 239.7452 0167711 190.7520 169.0060 14.31952483982257"}}, "geometry": {"type": "Point", "coordinates": [-116.13865869776157, -21.45196300415824]}}, {"type": "Feature", "properties": {"norad_id": 29845, "name": "FENGYUN 1C DEB", "group": "fengyun-1c-debris", "lat": 17.121859965929012, "lon": -22.899284678011607, "alt_km": 843.6724882990957, "timestamp": "2025-12-05T04:52:15.564530+00:00", "meta": {"OBJECT_NAME": "FENGYUN 1C DEB", "OBJECT_ID": "1999-025EP", "EPOCH": "2025-12-03T12:58:19.106688", "MEAN_MOTION": 14.26442814, "ECCENTRICITY": 0.00774815, "INCLINATION": 98.5216, "RA_OF_ASC_NODE": 338.13, "ARG_OF_PERICENTER": 157.9448, "MEAN_ANOMALY": 327.9037, "EPHEMERIS_TYPE": 0, "CLASSIFICATION_TYPE": "U", "NORAD_CAT_ID": 29845, "ELEMENT_SET_NO": 999, "REV_AT_EPOCH": 97978, "BSTAR": 0.00079590018, "MEAN_MOTION_DOT": 1.935e-05, "MEAN_MOTION_DDOT": 0}, "tle": {"line1": "1 29845U 99025EP  25337.54049892  .00001935  00000+0  79590-3 0  9994", "line2": "2 29845  98.5216 338.1300 0077481 157.9448 327.9037 14.26442814979781"}}, "geometry": {"type": "Point", "coordinates": [-22.899284678011607, 17.121859965929012]}}, {"type": "Feature", "properties": {"norad_id": 29846, "name": "FENGYUN 1C DEB", "group": "fengyun-1c-debris", "lat": -66.07988844183777, "lon": -178.88928595932617, "alt_km": 823.2627847014492, "timestamp": "2025-12-05T04:52:15.564539+00:00", "meta": {"OBJECT_NAME": "FENGYUN 1C DEB", "OBJECT_ID": "1999-025EQ", "EPOCH": "2025-12-04T16:24:41.977152", "MEAN_MOTION": 14.19084511, "ECCENTRICITY": 0.008418, "INCLINATION": 98.6562, "RA_OF_ASC_NODE": 20.6903, "ARG_OF_PERICENTER": 327.7494, "MEAN_ANOMALY": 150.1319, "EPHEMERIS_TYPE": 0, "CLASSIFICATION_TYPE": "U", "NORAD_CAT_ID": 29846, "ELEMENT_SET_NO": 999, "REV_AT_EPOCH": 97745, "BSTAR": 0.00025647, "MEAN_MOTION_DOT": 5.12e-06, "MEAN_MOTION_DDOT": 0}, "tle": {"line1": "1 29846U 99025EQ  25338.68381918  .00000512  00000+0  25647-3 0  9993", "line2": "2 29846  98.6562  20.6903 0084180 327.7494 150.1319 14.19084511977450"}}, "geometry": {"type": "Point", "coordinates": [-178.88928595932617, -66.07988844183777]}}, {"type": "Feature", "properties": {"norad_id": 29847, "name": "FENGYUN 1C DEB", "group": "fengyun-1c-debris", "lat": -30.590948607272523, "lon": 149.9621514052416, "alt_km": 943.8026090746471, "timestamp": "2025-12-05T04:52:15.564548+00:00", "meta": {"OBJECT_NAME": "FENGYUN 1C DEB", "OBJECT_ID": "1999-025ER", "EPOCH": "2025-12-04T13:02:04.215840", "MEAN_MOTION": 14.02989014, "ECCENTRICITY": 0.0085718, "INCLINATION": 98.9023, "RA_OF_ASC_NODE": 334.6335, "ARG_OF_PERICENTER": 61.5366, "MEAN_ANOMALY": 57.9628, "EPHEMERIS_TYPE": 0, "CLASSIFICATION_TYPE": "U", "NORAD_CAT_ID": 29847, "ELEMENT_SET_NO": 999, "REV_AT_EPOCH": 96620, "BSTAR": 0.00026187, "MEAN_MOTION_DOT": 3.77e-06, "MEAN_MOTION_DDOT": 0}, "tle": {"line1": "1 29847U 99025ER  25338.54310435  .00000377  00000+0  26187-3 0  9994", "line2": "2 29847  98.9023 334.6335 0085718  61.5366  57.9628 14.02989014966204"}}, "geometry": {"type": "Point", "coordinates": [149.9621514052416, -30.590948607272523]}}, {"type": "Feature", "properties": {"norad_id": 29848, "name": "FENGYUN 1C DEB", "group": "fengyun-1c-debris", "lat": -76.66876372449643, "lon": -11.44949592592139, "alt_km": 785.118477562004, "timestamp": "2025-12-05T04:52:15.564558+00:00", "meta": {"OBJECT_NAME": "FENGYUN 1C DEB", "OBJECT_ID": "1999-025ES", "EPOCH": "2025-12-04T14:22:13.181088", "MEAN_MOTION": 14.20488202, "ECCENTRICITY": 0.0117714, "INCLINATION": 98.249, "RA_OF_ASC_NODE": 205.7345, "ARG_OF_PERICENTER": 319.0474, "MEAN_ANOMALY": 93.6128, "EPHEMERIS_TYPE": 0, "CLASSIFICATION_TYPE": "U", "NORAD_CAT_ID": 29848, "ELEMENT_SET_NO": 999, "REV_AT_EPOCH": 97002, "BSTAR": 0.0031644, "MEAN_MOTION_DOT": 7.249e-05, "MEAN_MOTION_DDOT": 0}, "tle": {"line1": "1 29848U 99025ES  25338.59876367  .00007249  00000+0  31644-2 0  9999", "line2": "2 29848  98.2490 205.7345 0117714 319.0474  93.6128 14.20488202970028"}}, "geometry": {"type": "Point", "coordinates": [-11.44949592592139, -76.66876372449643]}}, {"type": "Feature", "properties": {"norad_id": 29849, "name": "FENGYUN 1C DEB", "group": "fengyun-1c-debris", "lat": 8.182882922959225, "lon": -115.06186938279122, "alt_km": 894.347718784391, "timestamp": "2025-12-05T04:52:15.564567+00:00", "meta": {"OBJECT_NAME": "FENGYUN 1C DEB", "OBJECT_ID": "1999-025ET", "EPOCH": "2025-12-03T11:19:56.180064", "MEAN_MOTION": 14.04843959, "ECCENTRICITY": 0.00810468, "INCLINATION": 99.012, "RA_OF_ASC_NODE": 61.912, "ARG_OF_PERICENTER": 70.6361, "MEAN_ANOMALY": 351.5475, "EPHEMERIS_TYPE": 0, "CLASSIFICATION_TYPE": "U", "NORAD_CAT_ID": 29849, "ELEMENT_SET_NO": 999, "REV_AT_EPOCH": 96240, "BSTAR": 0.0015656585, "MEAN_MOTION_DOT": 2.545e-05, "MEAN_MOTION_DDOT": 0}, "tle": {"line1": "1 29849U 99025ET  25337.47217801  .00002545  00000+0  15657-2 0  9998", "line2": "2 29849  99.0120  61.9120 0081046  70.6361 351.5475 14.04843959962404"}}, "geometry": {"type": "Point", "coordinates": [-115.06186938279122, 8.182882922959225]}}, {"type": "Feature", "properties": {"norad_id": 29850, "name": "FENGYUN 1C DEB", "group": "fengyun-1c-debris", "lat": -65.24937130849952, "lon": 68.63908317101932, "alt_km": 868.7109537807164, "timestamp": "2025-12-05T04:52:15.564576+00:00", "meta": {"OBJECT_NAME": "FENGYUN 1C DEB", "OBJECT_ID": "1999-025EU", "EPOCH": "2025-12-04T13:06:24.314400", "MEAN_MOTION": 13.99807977, "ECCENTRICITY": 0.0103157, "INCLINATION": 98.1222, "RA_OF_ASC_NODE": 266.1005, "ARG_OF_PERICENTER": 312.8425, "MEAN_ANOMALY": 226.5311, "EPHEMERIS_TYPE": 0, "CLASSIFICATION_TYPE": "U", "NORAD_CAT_ID": 29850, "ELEMENT_SET_NO": 999, "REV_AT_EPOCH": 95905, "BSTAR": 0.0025558, "MEAN_MOTION_DOT": 3.886e-05, "MEAN_MOTION_DDOT": 0}, "tle": {"line1": "1 29850U 99025EU  25338.54611475  .00003886  00000+0  25558-2 0  9994", "line2": "2 29850  98.1222 266.1005 0103157 312.8425 226.5311 13.99807977959050"}}, "geometry": {"type": "Point", "coordinates": [68.63908317101932, -65.24937130849952]}}, {"type": "Feature", "properties": {"norad_id": 29851, "name": "FENGYUN 1C DEB", "group": "fengyun-1c-debris", "lat": -79.28688244552723, "lon": 83.25421694226544, "alt_km": 865.744930002219, "timestamp": "2025-12-05T04:52:15.564585+00:00", "meta": {"OBJECT_NAME": "FENGYUN 1C DEB", "OBJECT_ID": "1999-025EV", "EPOCH": "2025-12-04T15:58:10.509888", "MEAN_MOTION": 13.83588912, "ECCENTRICITY": 0.0141907, "INCLINATION": 99.5851, "RA_OF_ASC_NODE": 19.435, "ARG_OF_PERICENTER": 248.9061, "MEAN_ANOMALY": 229.0431, "EPHEMERIS_TYPE": 0, "CLASSIFICATION_TYPE": "U", "NORAD_CAT_ID": 29851, "ELEMENT_SET_NO": 999, "REV_AT_EPOCH": 95255, "BSTAR": 0.00056358, "MEAN_MOTION_DOT": 6.25e-06, "MEAN_MOTION_DDOT": 0}, "tle": {"line1": "1 29851U 99025EV  25338.66539942  .00000625  00000+0  56358-3 0  9997", "line2": "2 29851  99.5851  19.4350 0141907 248.9061 229.0431 13.83588912952553"}}, "geometry": {"type": "Point", "coordinates": [83.25421694226544, -79.28688244552723]}}, {"type": "Feature", "properties": {"norad_id": 29852, "name": "FENGYUN 1C DEB", "group": "fengyun-1c-debris", "lat": -11.721474219065914, "lon": 166.75251819230954, "alt_km": 782.2177758149755, "timestamp": "2025-12-05T04:52:15.564595+00:00", "meta": {"OBJECT_NAME": "FENGYUN 1C DEB", "OBJECT_ID": "1999-025EW", "EPOCH": "2025-12-04T07:33:57.263904", "MEAN_MOTION": 14.06998269, "ECCENTRICITY": 0.0135212, "INCLINATION": 99.3715, "RA_OF_ASC_NODE": 347.7963, "ARG_OF_PERICENTER": 173.2308, "MEAN_ANOMALY": 203.9872, "EPHEMERIS_TYPE": 0, "CLASSIFICATION_TYPE": "U", "NORAD_CAT_ID": 29852, "ELEMENT_SET_NO": 999, "REV_AT_EPOCH": 95866, "BSTAR": 0.0035334, "MEAN_MOTION_DOT": 6.368e-05, "MEAN_MOTION_DDOT": 0}, "tle": {"line1": "1 29852U 99025EW  25338.31524611  .00006368  00000+0  35334-2 0  9997", "line2": "2 29852  99.3715 347.7963 0135212 173.2308 203.9872 14.06998269958668"}}, "geometry": {"type": "Point", "coordinates": [166.75251819230954, -11.721474219065914]}}]}